{
  "norad_id": 57979,
  "name": "STARLINK-30508",
  "history": [
    {
      "epoch": "2026-03-28T20:36:34.080192",
      "apogee_km": 483.8087414385773,
      "perigee_km": 482.2316358471953,
      "latitude_deg": 27.56245078315142,
      "longitude_deg": 60.33786687999964,
      "semi_major_axis_km": 6861.157188642886,
      "eccentricity": 0.00011493,
      "inclination_deg": 43.0001,
      "raan_deg": 242.535,
      "arg_perigee_deg": 275.9534,
      "mean_anomaly_deg": 84.1186,
      "mean_motion_rev_day": 15.27589654
    }
  ]
}